{
  "type": "FeatureCollection",
  "features": [
    {
      "type": "Feature",
      "geometry": {
        "type": "MultiPolygon",
        "coordinates": [
          [
            [
              [
                137.123142893737,
                34.99417285643611,
                25.3
              ],
              [
                137.123252448207,
                34.994157570597,
                25.3
              ],
              [
                137.123251247006,
                34.9941503583723,
                25.3
              ],
              [
                137.123527652687,
                34.9941118737976,
                25.3
              ],
              [
                137.123497276303,
                34.9939642916383,
                25.3
              ],
              [
                137.123414234289,
                34.9939758009545,
                25.3
              ],
              [
                137.123428220254,
                34.9940441376974,
                25.3
              ],
              [
                137.123402255906,
                34.9940477343452,
                25.3
              ],
              [
                137.123398213181,
                34.9940278103198,
                25.3
              ],
              [
                137.123217448637,
                34.9940529870453,
                25.3
              ],
              [
                137.123228921555,
                34.9941087022692,
                25.3
              ],
              [
                137.123132732798,
                34.99412209978431,
                25.3
              ],
              [
                137.123142893737,
                34.99417285643611,
                25.3
              ]
            ]
          ],
          [
            [
              [
                137.123142893737,
                34.99417285643611,
                25.3
              ],
              [
                137.123132732798,
                34.99412209978431,
                25.3
              ],
              [
                137.123132732798,
                34.99412209978431,
                29.3
              ],
              [
                137.123142893737,
                34.99417285643611,
                29.3
              ],
              [
                137.123142893737,
                34.99417285643611,
                25.3
              ]
            ]
          ],
          [
            [
              [
                137.123132732798,
                34.99412209978431,
                25.3
              ],
              [
                137.123228921555,
                34.9941087022692,
                25.3
              ],
              [
                137.123228921555,
                34.9941087022692,
                29.3
              ],
              [
                137.123132732798,
                34.99412209978431,
                29.3
              ],
              [
                137.123132732798,
                34.99412209978431,
                25.3
              ]
            ]
          ],
          [
            [
              [
                137.123228921555,
                34.9941087022692,
                25.3
              ],
              [
                137.123217448637,
                34.9940529870453,
                25.3
              ],
              [
                137.123217448637,
                34.9940529870453,
                29.3
              ],
              [
                137.123228921555,
                34.9941087022692,
                29.3
              ],
              [
                137.123228921555,
                34.9941087022692,
                25.3
              ]
            ]
          ],
          [
            [
              [
                137.123217448637,
                34.9940529870453,
                25.3
              ],
              [
                137.123398213181,
                34.9940278103198,
                25.3
              ],
              [
                137.123398213181,
                34.9940278103198,
                29.3
              ],
              [
                137.123217448637,
                34.9940529870453,
                29.3
              ],
              [
                137.123217448637,
                34.9940529870453,
                25.3
              ]
            ]
          ],
          [
            [
              [
                137.123398213181,
                34.9940278103198,
                25.3
              ],
              [
                137.123402255906,
                34.9940477343452,
                25.3
              ],
              [
                137.123402255906,
                34.9940477343452,
                29.3
              ],
              [
                137.123398213181,
                34.9940278103198,
                29.3
              ],
              [
                137.123398213181,
                34.9940278103198,
                25.3
              ]
            ]
          ],
          [
            [
              [
                137.123402255906,
                34.9940477343452,
                25.3
              ],
              [
                137.123428220254,
                34.9940441376974,
                25.3
              ],
              [
                137.123428220254,
                34.9940441376974,
                29.3
              ],
              [
                137.123402255906,
                34.9940477343452,
                29.3
              ],
              [
                137.123402255906,
                34.9940477343452,
                25.3
              ]
            ]
          ],
          [
            [
              [
                137.123428220254,
                34.9940441376974,
                25.3
              ],
              [
                137.123414234289,
                34.9939758009545,
                25.3
              ],
              [
                137.123414234289,
                34.9939758009545,
                29.3
              ],
              [
                137.123428220254,
                34.9940441376974,
                29.3
              ],
              [
                137.123428220254,
                34.9940441376974,
                25.3
              ]
            ]
          ],
          [
            [
              [
                137.123414234289,
                34.9939758009545,
                25.3
              ],
              [
                137.123497276303,
                34.9939642916383,
                25.3
              ],
              [
                137.123497276303,
                34.9939642916383,
                29.3
              ],
              [
                137.123414234289,
                34.9939758009545,
                29.3
              ],
              [
                137.123414234289,
                34.9939758009545,
                25.3
              ]
            ]
          ],
          [
            [
              [
                137.123497276303,
                34.9939642916383,
                25.3
              ],
              [
                137.123527652687,
                34.9941118737976,
                25.3
              ],
              [
                137.123527652687,
                34.9941118737976,
                29.3
              ],
              [
                137.123497276303,
                34.9939642916383,
                29.3
              ],
              [
                137.123497276303,
                34.9939642916383,
                25.3
              ]
            ]
          ],
          [
            [
              [
                137.123527652687,
                34.9941118737976,
                25.3
              ],
              [
                137.123251247006,
                34.9941503583723,
                25.3
              ],
              [
                137.123251247006,
                34.9941503583723,
                29.3
              ],
              [
                137.123527652687,
                34.9941118737976,
                29.3
              ],
              [
                137.123527652687,
                34.9941118737976,
                25.3
              ]
            ]
          ],
          [
            [
              [
                137.123251247006,
                34.9941503583723,
                25.3
              ],
              [
                137.123252448207,
                34.994157570597,
                25.3
              ],
              [
                137.123252448207,
                34.994157570597,
                29.3
              ],
              [
                137.123251247006,
                34.9941503583723,
                29.3
              ],
              [
                137.123251247006,
                34.9941503583723,
                25.3
              ]
            ]
          ],
          [
            [
              [
                137.123252448207,
                34.994157570597,
                25.3
              ],
              [
                137.123142893737,
                34.99417285643611,
                25.3
              ],
              [
                137.123142893737,
                34.99417285643611,
                29.3
              ],
              [
                137.123252448207,
                34.994157570597,
                29.3
              ],
              [
                137.123252448207,
                34.994157570597,
                25.3
              ]
            ]
          ],
          [
            [
              [
                137.123142893737,
                34.99417285643611,
                29.3
              ],
              [
                137.123132732798,
                34.99412209978431,
                29.3
              ],
              [
                137.123228921555,
                34.9941087022692,
                29.3
              ],
              [
                137.123217448637,
                34.9940529870453,
                29.3
              ],
              [
                137.123398213181,
                34.9940278103198,
                29.3
              ],
              [
                137.123402255906,
                34.9940477343452,
                29.3
              ],
              [
                137.123428220254,
                34.9940441376974,
                29.3
              ],
              [
                137.123414234289,
                34.9939758009545,
                29.3
              ],
              [
                137.123497276303,
                34.9939642916383,
                29.3
              ],
              [
                137.123527652687,
                34.9941118737976,
                29.3
              ],
              [
                137.123251247006,
                34.9941503583723,
                29.3
              ],
              [
                137.123252448207,
                34.994157570597,
                29.3
              ],
              [
                137.123142893737,
                34.99417285643611,
                29.3
              ]
            ]
          ]
        ]
      },
      "properties": {
        "predicted_probability": "0.0116990965634684"
      }
    },
    {
      "type": "Feature",
      "geometry": {
        "type": "MultiPolygon",
        "coordinates": [
          [
            [
              [
                137.122848087523,
                34.9942044822891,
                25.31
              ],
              [
                137.12293561727,
                34.9942004572146,
                25.31
              ],
              [
                137.122930073516,
                34.9941194126694,
                25.31
              ],
              [
                137.122848130861,
                34.9941231693143,
                25.31
              ],
              [
                137.122843639366,
                34.99412334798799,
                25.31
              ],
              [
                137.122788097991,
                34.99412594220269,
                25.31
              ],
              [
                137.122793641605,
                34.9942069867541,
                25.31
              ],
              [
                137.122843596024,
                34.9942046609628,
                25.31
              ],
              [
                137.122848087523,
                34.9942044822891,
                25.31
              ]
            ]
          ],
          [
            [
              [
                137.122848087523,
                34.9942044822891,
                25.31
              ],
              [
                137.122843596024,
                34.9942046609628,
                25.31
              ],
              [
                137.122843596024,
                34.9942046609628,
                31.6
              ],
              [
                137.122848087523,
                34.9942044822891,
                31.6
              ],
              [
                137.122848087523,
                34.9942044822891,
                25.31
              ]
            ]
          ],
          [
            [
              [
                137.122843596024,
                34.9942046609628,
                25.31
              ],
              [
                137.122793641605,
                34.9942069867541,
                25.31
              ],
              [
                137.122793641605,
                34.9942069867541,
                31.6
              ],
              [
                137.122843596024,
                34.9942046609628,
                31.6
              ],
              [
                137.122843596024,
                34.9942046609628,
                25.31
              ]
            ]
          ],
          [
            [
              [
                137.122793641605,
                34.9942069867541,
                25.31
              ],
              [
                137.122788097991,
                34.99412594220269,
                25.31
              ],
              [
                137.122788097991,
                34.99412594220269,
                31.6
              ],
              [
                137.122793641605,
                34.9942069867541,
                31.6
              ],
              [
                137.122793641605,
                34.9942069867541,
                25.31
              ]
            ]
          ],
          [
            [
              [
                137.122788097991,
                34.99412594220269,
                25.31
              ],
              [
                137.122843639366,
                34.99412334798799,
                25.31
              ],
              [
                137.122843639366,
                34.99412334798799,
                31.6
              ],
              [
                137.122788097991,
                34.99412594220269,
                31.6
              ],
              [
                137.122788097991,
                34.99412594220269,
                25.31
              ]
            ]
          ],
          [
            [
              [
                137.122843639366,
                34.99412334798799,
                25.31
              ],
              [
                137.122848130861,
                34.9941231693143,
                25.31
              ],
              [
                137.122848130861,
                34.9941231693143,
                31.6
              ],
              [
                137.122843639366,
                34.99412334798799,
                31.6
              ],
              [
                137.122843639366,
                34.99412334798799,
                25.31
              ]
            ]
          ],
          [
            [
              [
                137.122848130861,
                34.9941231693143,
                25.31
              ],
              [
                137.122930073516,
                34.9941194126694,
                25.31
              ],
              [
                137.122930073516,
                34.9941194126694,
                31.6
              ],
              [
                137.122848130861,
                34.9941231693143,
                31.6
              ],
              [
                137.122848130861,
                34.9941231693143,
                25.31
              ]
            ]
          ],
          [
            [
              [
                137.122930073516,
                34.9941194126694,
                25.31
              ],
              [
                137.12293561727,
                34.9942004572146,
                25.31
              ],
              [
                137.12293561727,
                34.9942004572146,
                31.6
              ],
              [
                137.122930073516,
                34.9941194126694,
                31.6
              ],
              [
                137.122930073516,
                34.9941194126694,
                25.31
              ]
            ]
          ],
          [
            [
              [
                137.12293561727,
                34.9942004572146,
                25.31
              ],
              [
                137.122848087523,
                34.9942044822891,
                25.31
              ],
              [
                137.122848087523,
                34.9942044822891,
                31.6
              ],
              [
                137.12293561727,
                34.9942004572146,
                31.6
              ],
              [
                137.12293561727,
                34.9942004572146,
                25.31
              ]
            ]
          ],
          [
            [
              [
                137.122848087523,
                34.9942044822891,
                31.6
              ],
              [
                137.122843596024,
                34.9942046609628,
                31.6
              ],
              [
                137.122793641605,
                34.9942069867541,
                31.6
              ],
              [
                137.122788097991,
                34.99412594220269,
                31.6
              ],
              [
                137.122843639366,
                34.99412334798799,
                31.6
              ],
              [
                137.122848130861,
                34.9941231693143,
                31.6
              ],
              [
                137.122930073516,
                34.9941194126694,
                31.6
              ],
              [
                137.12293561727,
                34.9942004572146,
                31.6
              ],
              [
                137.122848087523,
                34.9942044822891,
                31.6
              ]
            ]
          ]
        ]
      },
      "properties": {
        "predicted_probability": "0.0116990965634684"
      }
    },
    {
      "type": "Feature",
      "geometry": {
        "type": "MultiPolygon",
        "coordinates": [
          [
            [
              [
                137.12427576263,
                34.9974758979907,
                25.21
              ],
              [
                137.124303919179,
                34.9974720314814,
                25.21
              ],
              [
                137.12429386625,
                34.9974220863182,
                25.21
              ],
              [
                137.12426921562,
                34.9974254131654,
                25.21
              ],
              [
                137.124265281652,
                34.99740630054441,
                25.21
              ],
              [
                137.124204367139,
                34.99741466296099,
                25.21
              ],
              [
                137.124207863775,
                34.99743206263061,
                25.21
              ],
              [
                137.124087787639,
                34.9974485175482,
                25.21
              ],
              [
                137.124105271044,
                34.997534884879,
                25.21
              ],
              [
                137.124282756032,
                34.99751051703041,
                25.21
              ],
              [
                137.12427576263,
                34.9974758979907,
                25.21
              ]
            ]
          ],
          [
            [
              [
                137.12427576263,
                34.9974758979907,
                25.21
              ],
              [
                137.124282756032,
                34.99751051703041,
                25.21
              ],
              [
                137.124282756032,
                34.99751051703041,
                29.4
              ],
              [
                137.12427576263,
                34.9974758979907,
                29.4
              ],
              [
                137.12427576263,
                34.9974758979907,
                25.21
              ]
            ]
          ],
          [
            [
              [
                137.124282756032,
                34.99751051703041,
                25.21
              ],
              [
                137.124105271044,
                34.997534884879,
                25.21
              ],
              [
                137.124105271044,
                34.997534884879,
                29.4
              ],
              [
                137.124282756032,
                34.99751051703041,
                29.4
              ],
              [
                137.124282756032,
                34.99751051703041,
                25.21
              ]
            ]
          ],
          [
            [
              [
                137.124105271044,
                34.997534884879,
                25.21
              ],
              [
                137.124087787639,
                34.9974485175482,
                25.21
              ],
              [
                137.124087787639,
                34.9974485175482,
                29.4
              ],
              [
                137.124105271044,
                34.997534884879,
                29.4
              ],
              [
                137.124105271044,
                34.997534884879,
                25.21
              ]
            ]
          ],
          [
            [
              [
                137.124087787639,
                34.9974485175482,
                25.21
              ],
              [
                137.124207863775,
                34.99743206263061,
                25.21
              ],
              [
                137.124207863775,
                34.99743206263061,
                29.4
              ],
              [
                137.124087787639,
                34.9974485175482,
                29.4
              ],
              [
                137.124087787639,
                34.9974485175482,
                25.21
              ]
            ]
          ],
          [
            [
              [
                137.124207863775,
                34.99743206263061,
                25.21
              ],
              [
                137.124204367139,
                34.99741466296099,
                25.21
              ],
              [
                137.124204367139,
                34.99741466296099,
                29.4
              ],
              [
                137.124207863775,
                34.99743206263061,
                29.4
              ],
              [
                137.124207863775,
                34.99743206263061,
                25.21
              ]
            ]
          ],
          [
            [
              [
                137.124204367139,
                34.99741466296099,
                25.21
              ],
              [
                137.124265281652,
                34.99740630054441,
                25.21
              ],
              [
                137.124265281652,
                34.99740630054441,
                29.4
              ],
              [
                137.124204367139,
                34.99741466296099,
                29.4
              ],
              [
                137.124204367139,
                34.99741466296099,
                25.21
              ]
            ]
          ],
          [
            [
              [
                137.124265281652,
                34.99740630054441,
                25.21
              ],
              [
                137.12426921562,
                34.9974254131654,
                25.21
              ],
              [
                137.12426921562,
                34.9974254131654,
                29.4
              ],
              [
                137.124265281652,
                34.99740630054441,
                29.4
              ],
              [
                137.124265281652,
                34.99740630054441,
                25.21
              ]
            ]
          ],
          [
            [
              [
                137.12426921562,
                34.9974254131654,
                25.21
              ],
              [
                137.12429386625,
                34.9974220863182,
                25.21
              ],
              [
                137.12429386625,
                34.9974220863182,
                29.4
              ],
              [
                137.12426921562,
                34.9974254131654,
                29.4
              ],
              [
                137.12426921562,
                34.9974254131654,
                25.21
              ]
            ]
          ],
          [
            [
              [
                137.12429386625,
                34.9974220863182,
                25.21
              ],
              [
                137.124303919179,
                34.9974720314814,
                25.21
              ],
              [
                137.124303919179,
                34.9974720314814,
                29.4
              ],
              [
                137.12429386625,
                34.9974220863182,
                29.4
              ],
              [
                137.12429386625,
                34.9974220863182,
                25.21
              ]
            ]
          ],
          [
            [
              [
                137.124303919179,
                34.9974720314814,
                25.21
              ],
              [
                137.12427576263,
                34.9974758979907,
                25.21
              ],
              [
                137.12427576263,
                34.9974758979907,
                29.4
              ],
              [
                137.124303919179,
                34.9974720314814,
                29.4
              ],
              [
                137.124303919179,
                34.9974720314814,
                25.21
              ]
            ]
          ],
          [
            [
              [
                137.12427576263,
                34.9974758979907,
                29.4
              ],
              [
                137.124282756032,
                34.99751051703041,
                29.4
              ],
              [
                137.124105271044,
                34.997534884879,
                29.4
              ],
              [
                137.124087787639,
                34.9974485175482,
                29.4
              ],
              [
                137.124207863775,
                34.99743206263061,
                29.4
              ],
              [
                137.124204367139,
                34.99741466296099,
                29.4
              ],
              [
                137.124265281652,
                34.99740630054441,
                29.4
              ],
              [
                137.12426921562,
                34.9974254131654,
                29.4
              ],
              [
                137.12429386625,
                34.9974220863182,
                29.4
              ],
              [
                137.124303919179,
                34.9974720314814,
                29.4
              ],
              [
                137.12427576263,
                34.9974758979907,
                29.4
              ]
            ]
          ]
        ]
      },
      "properties": {
        "predicted_probability": "0.0116990965634684"
      }
    },
    {
      "type": "Feature",
      "geometry": {
        "type": "MultiPolygon",
        "coordinates": [
          [
            [
              [
                137.123535644506,
                34.99412152241321,
                25.36
              ],
              [
                137.12348053722,
                34.99413195992609,
                25.36
              ],
              [
                137.123484909319,
                34.9941505318539,
                25.36
              ],
              [
                137.123488415133,
                34.9941499020687,
                25.36
              ],
              [
                137.123495192427,
                34.9941776698904,
                25.36
              ],
              [
                137.123546793219,
                34.9941692143692,
                25.36
              ],
              [
                137.123535644506,
                34.99412152241321,
                25.36
              ]
            ]
          ],
          [
            [
              [
                137.123535644506,
                34.99412152241321,
                25.36
              ],
              [
                137.123546793219,
                34.9941692143692,
                25.36
              ],
              [
                137.123546793219,
                34.9941692143692,
                28.36
              ],
              [
                137.123535644506,
                34.99412152241321,
                28.36
              ],
              [
                137.123535644506,
                34.99412152241321,
                25.36
              ]
            ]
          ],
          [
            [
              [
                137.123546793219,
                34.9941692143692,
                25.36
              ],
              [
                137.123495192427,
                34.9941776698904,
                25.36
              ],
              [
                137.123495192427,
                34.9941776698904,
                28.36
              ],
              [
                137.123546793219,
                34.9941692143692,
                28.36
              ],
              [
                137.123546793219,
                34.9941692143692,
                25.36
              ]
            ]
          ],
          [
            [
              [
                137.123495192427,
                34.9941776698904,
                25.36
              ],
              [
                137.123488415133,
                34.9941499020687,
                25.36
              ],
              [
                137.123488415133,
                34.9941499020687,
                28.36
              ],
              [
                137.123495192427,
                34.9941776698904,
                28.36
              ],
              [
                137.123495192427,
                34.9941776698904,
                25.36
              ]
            ]
          ],
          [
            [
              [
                137.123488415133,
                34.9941499020687,
                25.36
              ],
              [
                137.123484909319,
                34.9941505318539,
                25.36
              ],
              [
                137.123484909319,
                34.9941505318539,
                28.36
              ],
              [
                137.123488415133,
                34.9941499020687,
                28.36
              ],
              [
                137.123488415133,
                34.9941499020687,
                25.36
              ]
            ]
          ],
          [
            [
              [
                137.123484909319,
                34.9941505318539,
                25.36
              ],
              [
                137.12348053722,
                34.99413195992609,
                25.36
              ],
              [
                137.12348053722,
                34.99413195992609,
                28.36
              ],
              [
                137.123484909319,
                34.9941505318539,
                28.36
              ],
              [
                137.123484909319,
                34.9941505318539,
                25.36
              ]
            ]
          ],
          [
            [
              [
                137.12348053722,
                34.99413195992609,
                25.36
              ],
              [
                137.123535644506,
                34.99412152241321,
                25.36
              ],
              [
                137.123535644506,
                34.99412152241321,
                28.36
              ],
              [
                137.12348053722,
                34.99413195992609,
                28.36
              ],
              [
                137.12348053722,
                34.99413195992609,
                25.36
              ]
            ]
          ],
          [
            [
              [
                137.123535644506,
                34.99412152241321,
                28.36
              ],
              [
                137.123546793219,
                34.9941692143692,
                28.36
              ],
              [
                137.123495192427,
                34.9941776698904,
                28.36
              ],
              [
                137.123488415133,
                34.9941499020687,
                28.36
              ],
              [
                137.123484909319,
                34.9941505318539,
                28.36
              ],
              [
                137.12348053722,
                34.99413195992609,
                28.36
              ],
              [
                137.123535644506,
                34.99412152241321,
                28.36
              ]
            ]
          ]
        ]
      },
      "properties": {
        "predicted_probability": "0.0116990965634684"
      }
    },
    {
      "type": "Feature",
      "geometry": {
        "type": "MultiPolygon",
        "coordinates": [
          [
            [
              [
                137.123372158779,
                34.9979466893497,
                25.21
              ],
              [
                137.123359484773,
                34.9978822294497,
                25.21
              ],
              [
                137.123212234359,
                34.99790759839381,
                25.21
              ],
              [
                137.123265773511,
                34.9979672049665,
                25.21
              ],
              [
                137.123316610036,
                34.9979583886866,
                25.21
              ],
              [
                137.12334701583,
                34.9980523331128,
                25.21
              ],
              [
                137.123592329946,
                34.9979986024143,
                25.21
              ],
              [
                137.123562142758,
                34.99790510886321,
                25.21
              ],
              [
                137.123446552763,
                34.9979303991814,
                25.21
              ],
              [
                137.123372158779,
                34.9979466893497,
                25.21
              ]
            ]
          ],
          [
            [
              [
                137.123372158779,
                34.9979466893497,
                25.21
              ],
              [
                137.123446552763,
                34.9979303991814,
                25.21
              ],
              [
                137.123446552763,
                34.9979303991814,
                30.3
              ],
              [
                137.123372158779,
                34.9979466893497,
                30.3
              ],
              [
                137.123372158779,
                34.9979466893497,
                25.21
              ]
            ]
          ],
          [
            [
              [
                137.123446552763,
                34.9979303991814,
                25.21
              ],
              [
                137.123562142758,
                34.99790510886321,
                25.21
              ],
              [
                137.123562142758,
                34.99790510886321,
                30.3
              ],
              [
                137.123446552763,
                34.9979303991814,
                30.3
              ],
              [
                137.123446552763,
                34.9979303991814,
                25.21
              ]
            ]
          ],
          [
            [
              [
                137.123562142758,
                34.99790510886321,
                25.21
              ],
              [
                137.123592329946,
                34.9979986024143,
                25.21
              ],
              [
                137.123592329946,
                34.9979986024143,
                30.3
              ],
              [
                137.123562142758,
                34.99790510886321,
                30.3
              ],
              [
                137.123562142758,
                34.99790510886321,
                25.21
              ]
            ]
          ],
          [
            [
              [
                137.123592329946,
                34.9979986024143,
                25.21
              ],
              [
                137.12334701583,
                34.9980523331128,
                25.21
              ],
              [
                137.12334701583,
                34.9980523331128,
                30.3
              ],
              [
                137.123592329946,
                34.9979986024143,
                30.3
              ],
              [
                137.123592329946,
                34.9979986024143,
                25.21
              ]
            ]
          ],
          [
            [
              [
                137.12334701583,
                34.9980523331128,
                25.21
              ],
              [
                137.123316610036,
                34.9979583886866,
                25.21
              ],
              [
                137.123316610036,
                34.9979583886866,
                30.3
              ],
              [
                137.12334701583,
                34.9980523331128,
                30.3
              ],
              [
                137.12334701583,
                34.9980523331128,
                25.21
              ]
            ]
          ],
          [
            [
              [
                137.123316610036,
                34.9979583886866,
                25.21
              ],
              [
                137.123265773511,
                34.9979672049665,
                25.21
              ],
              [
                137.123265773511,
                34.9979672049665,
                30.3
              ],
              [
                137.123316610036,
                34.9979583886866,
                30.3
              ],
              [
                137.123316610036,
                34.9979583886866,
                25.21
              ]
            ]
          ],
          [
            [
              [
                137.123265773511,
                34.9979672049665,
                25.21
              ],
              [
                137.123212234359,
                34.99790759839381,
                25.21
              ],
              [
                137.123212234359,
                34.99790759839381,
                30.3
              ],
              [
                137.123265773511,
                34.9979672049665,
                30.3
              ],
              [
                137.123265773511,
                34.9979672049665,
                25.21
              ]
            ]
          ],
          [
            [
              [
                137.123212234359,
                34.99790759839381,
                25.21
              ],
              [
                137.123359484773,
                34.9978822294497,
                25.21
              ],
              [
                137.123359484773,
                34.9978822294497,
                30.3
              ],
              [
                137.123212234359,
                34.99790759839381,
                30.3
              ],
              [
                137.123212234359,
                34.99790759839381,
                25.21
              ]
            ]
          ],
          [
            [
              [
                137.123359484773,
                34.9978822294497,
                25.21
              ],
              [
                137.123372158779,
                34.9979466893497,
                25.21
              ],
              [
                137.123372158779,
                34.9979466893497,
                30.3
              ],
              [
                137.123359484773,
                34.9978822294497,
                30.3
              ],
              [
                137.123359484773,
                34.9978822294497,
                25.21
              ]
            ]
          ],
          [
            [
              [
                137.123372158779,
                34.9979466893497,
                30.3
              ],
              [
                137.123446552763,
                34.9979303991814,
                30.3
              ],
              [
                137.123562142758,
                34.99790510886321,
                30.3
              ],
              [
                137.123592329946,
                34.9979986024143,
                30.3
              ],
              [
                137.12334701583,
                34.9980523331128,
                30.3
              ],
              [
                137.123316610036,
                34.9979583886866,
                30.3
              ],
              [
                137.123265773511,
                34.9979672049665,
                30.3
              ],
              [
                137.123212234359,
                34.99790759839381,
                30.3
              ],
              [
                137.123359484773,
                34.9978822294497,
                30.3
              ],
              [
                137.123372158779,
                34.9979466893497,
                30.3
              ]
            ]
          ]
        ]
      },
      "properties": {
        "predicted_probability": "0.0116990965634684"
      }
    },
    {
      "type": "Feature",
      "geometry": {
        "type": "MultiPolygon",
        "coordinates": [
          [
            [
              [
                137.123601405622,
                34.99803123898659,
                25.3
              ],
              [
                137.123539723955,
                34.9980391500597,
                25.3
              ],
              [
                137.123549120325,
                34.9980869315097,
                25.3
              ],
              [
                137.123610036159,
                34.9980771270653,
                25.3
              ],
              [
                137.123601405622,
                34.99803123898659,
                25.3
              ]
            ]
          ],
          [
            [
              [
                137.123601405622,
                34.99803123898659,
                25.3
              ],
              [
                137.123610036159,
                34.9980771270653,
                25.3
              ],
              [
                137.123610036159,
                34.9980771270653,
                28.3
              ],
              [
                137.123601405622,
                34.99803123898659,
                28.3
              ],
              [
                137.123601405622,
                34.99803123898659,
                25.3
              ]
            ]
          ],
          [
            [
              [
                137.123610036159,
                34.9980771270653,
                25.3
              ],
              [
                137.123549120325,
                34.9980869315097,
                25.3
              ],
              [
                137.123549120325,
                34.9980869315097,
                28.3
              ],
              [
                137.123610036159,
                34.9980771270653,
                28.3
              ],
              [
                137.123610036159,
                34.9980771270653,
                25.3
              ]
            ]
          ],
          [
            [
              [
                137.123549120325,
                34.9980869315097,
                25.3
              ],
              [
                137.123539723955,
                34.9980391500597,
                25.3
              ],
              [
                137.123539723955,
                34.9980391500597,
                28.3
              ],
              [
                137.123549120325,
                34.9980869315097,
                28.3
              ],
              [
                137.123549120325,
                34.9980869315097,
                25.3
              ]
            ]
          ],
          [
            [
              [
                137.123539723955,
                34.9980391500597,
                25.3
              ],
              [
                137.123601405622,
                34.99803123898659,
                25.3
              ],
              [
                137.123601405622,
                34.99803123898659,
                28.3
              ],
              [
                137.123539723955,
                34.9980391500597,
                28.3
              ],
              [
                137.123539723955,
                34.9980391500597,
                25.3
              ]
            ]
          ],
          [
            [
              [
                137.123601405622,
                34.99803123898659,
                28.3
              ],
              [
                137.123610036159,
                34.9980771270653,
                28.3
              ],
              [
                137.123549120325,
                34.9980869315097,
                28.3
              ],
              [
                137.123539723955,
                34.9980391500597,
                28.3
              ],
              [
                137.123601405622,
                34.99803123898659,
                28.3
              ]
            ]
          ]
        ]
      },
      "properties": {
        "predicted_probability": "0.0116990965634684"
      }
    },
    {
      "type": "Feature",
      "geometry": {
        "type": "MultiPolygon",
        "coordinates": [
          [
            [
              [
                137.159458444888,
                34.99994636223749,
                20.8
              ],
              [
                137.159537873817,
                34.9999209453715,
                20.8
              ],
              [
                137.159527468076,
                34.9998991290982,
                20.8
              ],
              [
                137.159571510021,
                34.9998849785443,
                20.8
              ],
              [
                137.159586187573,
                34.9999161703888,
                20.8
              ],
              [
                137.159636583822,
                34.99990003693981,
                20.8
              ],
              [
                137.159621358576,
                34.9998677633011,
                20.8
              ],
              [
                137.159631547384,
                34.99986442843951,
                20.8
              ],
              [
                137.159611174032,
                34.9998214269646,
                20.8
              ],
              [
                137.159590905995,
                34.9998279163952,
                20.8
              ],
              [
                137.159584553008,
                34.99981466436221,
                20.8
              ],
              [
                137.159556506431,
                34.9998235873118,
                20.8
              ],
              [
                137.159552672737,
                34.9998155639718,
                20.8
              ],
              [
                137.159513451333,
                34.9998281822981,
                20.8
              ],
              [
                137.159516627801,
                34.9998350336848,
                20.8
              ],
              [
                137.159420327165,
                34.9998657682258,
                20.8
              ],
              [
                137.159458444888,
                34.99994636223749,
                20.8
              ]
            ]
          ],
          [
            [
              [
                137.159458444888,
                34.99994636223749,
                20.8
              ],
              [
                137.159420327165,
                34.9998657682258,
                20.8
              ],
              [
                137.159420327165,
                34.9998657682258,
                24.5
              ],
              [
                137.159458444888,
                34.99994636223749,
                24.5
              ],
              [
                137.159458444888,
                34.99994636223749,
                20.8
              ]
            ]
          ],
          [
            [
              [
                137.159420327165,
                34.9998657682258,
                20.8
              ],
              [
                137.159516627801,
                34.9998350336848,
                20.8
              ],
              [
                137.159516627801,
                34.9998350336848,
                24.5
              ],
              [
                137.159420327165,
                34.9998657682258,
                24.5
              ],
              [
                137.159420327165,
                34.9998657682258,
                20.8
              ]
            ]
          ],
          [
            [
              [
                137.159516627801,
                34.9998350336848,
                20.8
              ],
              [
                137.159513451333,
                34.9998281822981,
                20.8
              ],
              [
                137.159513451333,
                34.9998281822981,
                24.5
              ],
              [
                137.159516627801,
                34.9998350336848,
                24.5
              ],
              [
                137.159516627801,
                34.9998350336848,
                20.8
              ]
            ]
          ],
          [
            [
              [
                137.159513451333,
                34.9998281822981,
                20.8
              ],
              [
                137.159552672737,
                34.9998155639718,
                20.8
              ],
              [
                137.159552672737,
                34.9998155639718,
                24.5
              ],
              [
                137.159513451333,
                34.9998281822981,
                24.5
              ],
              [
                137.159513451333,
                34.9998281822981,
                20.8
              ]
            ]
          ],
          [
            [
              [
                137.159552672737,
                34.9998155639718,
                20.8
              ],
              [
                137.159556506431,
                34.9998235873118,
                20.8
              ],
              [
                137.159556506431,
                34.9998235873118,
                24.5
              ],
              [
                137.159552672737,
                34.9998155639718,
                24.5
              ],
              [
                137.159552672737,
                34.9998155639718,
                20.8
              ]
            ]
          ],
          [
            [
              [
                137.159556506431,
                34.9998235873118,
                20.8
              ],
              [
                137.159584553008,
                34.99981466436221,
                20.8
              ],
              [
                137.159584553008,
                34.99981466436221,
                24.5
              ],
              [
                137.159556506431,
                34.9998235873118,
                24.5
              ],
              [
                137.159556506431,
                34.9998235873118,
                20.8
              ]
            ]
          ],
          [
            [
              [
                137.159584553008,
                34.99981466436221,
                20.8
              ],
              [
                137.159590905995,
                34.9998279163952,
                20.8
              ],
              [
                137.159590905995,
                34.9998279163952,
                24.5
              ],
              [
                137.159584553008,
                34.99981466436221,
                24.5
              ],
              [
                137.159584553008,
                34.99981466436221,
                20.8
              ]
            ]
          ],
          [
            [
              [
                137.159590905995,
                34.9998279163952,
                20.8
              ],
              [
                137.159611174032,
                34.9998214269646,
                20.8
              ],
              [
                137.159611174032,
                34.9998214269646,
                24.5
              ],
              [
                137.159590905995,
                34.9998279163952,
                24.5
              ],
              [
                137.159590905995,
                34.9998279163952,
                20.8
              ]
            ]
          ],
          [
            [
              [
                137.159611174032,
                34.9998214269646,
                20.8
              ],
              [
                137.159631547384,
                34.99986442843951,
                20.8
              ],
              [
                137.159631547384,
                34.99986442843951,
                24.5
              ],
              [
                137.159611174032,
                34.9998214269646,
                24.5
              ],
              [
                137.159611174032,
                34.9998214269646,
                20.8
              ]
            ]
          ],
          [
            [
              [
                137.159631547384,
                34.99986442843951,
                20.8
              ],
              [
                137.159621358576,
                34.9998677633011,
                20.8
              ],
              [
                137.159621358576,
                34.9998677633011,
                24.5
              ],
              [
                137.159631547384,
                34.99986442843951,
                24.5
              ],
              [
                137.159631547384,
                34.99986442843951,
                20.8
              ]
            ]
          ],
          [
            [
              [
                137.159621358576,
                34.9998677633011,
                20.8
              ],
              [
                137.159636583822,
                34.99990003693981,
                20.8
              ],
              [
                137.159636583822,
                34.99990003693981,
                24.5
              ],
              [
                137.159621358576,
                34.9998677633011,
                24.5
              ],
              [
                137.159621358576,
                34.9998677633011,
                20.8
              ]
            ]
          ],
          [
            [
              [
                137.159636583822,
                34.99990003693981,
                20.8
              ],
              [
                137.159586187573,
                34.9999161703888,
                20.8
              ],
              [
                137.159586187573,
                34.9999161703888,
                24.5
              ],
              [
                137.159636583822,
                34.99990003693981,
                24.5
              ],
              [
                137.159636583822,
                34.99990003693981,
                20.8
              ]
            ]
          ],
          [
            [
              [
                137.159586187573,
                34.9999161703888,
                20.8
              ],
              [
                137.159571510021,
                34.9998849785443,
                20.8
              ],
              [
                137.159571510021,
                34.9998849785443,
                24.5
              ],
              [
                137.159586187573,
                34.9999161703888,
                24.5
              ],
              [
                137.159586187573,
                34.9999161703888,
                20.8
              ]
            ]
          ],
          [
            [
              [
                137.159571510021,
                34.9998849785443,
                20.8
              ],
              [
                137.159527468076,
                34.9998991290982,
                20.8
              ],
              [
                137.159527468076,
                34.9998991290982,
                24.5
              ],
              [
                137.159571510021,
                34.9998849785443,
                24.5
              ],
              [
                137.159571510021,
                34.9998849785443,
                20.8
              ]
            ]
          ],
          [
            [
              [
                137.159527468076,
                34.9998991290982,
                20.8
              ],
              [
                137.159537873817,
                34.9999209453715,
                20.8
              ],
              [
                137.159537873817,
                34.9999209453715,
                24.5
              ],
              [
                137.159527468076,
                34.9998991290982,
                24.5
              ],
              [
                137.159527468076,
                34.9998991290982,
                20.8
              ]
            ]
          ],
          [
            [
              [
                137.159537873817,
                34.9999209453715,
                20.8
              ],
              [
                137.159458444888,
                34.99994636223749,
                20.8
              ],
              [
                137.159458444888,
                34.99994636223749,
                24.5
              ],
              [
                137.159537873817,
                34.9999209453715,
                24.5
              ],
              [
                137.159537873817,
                34.9999209453715,
                20.8
              ]
            ]
          ],
          [
            [
              [
                137.159458444888,
                34.99994636223749,
                24.5
              ],
              [
                137.159420327165,
                34.9998657682258,
                24.5
              ],
              [
                137.159516627801,
                34.9998350336848,
                24.5
              ],
              [
                137.159513451333,
                34.9998281822981,
                24.5
              ],
              [
                137.159552672737,
                34.9998155639718,
                24.5
              ],
              [
                137.159556506431,
                34.9998235873118,
                24.5
              ],
              [
                137.159584553008,
                34.99981466436221,
                24.5
              ],
              [
                137.159590905995,
                34.9998279163952,
                24.5
              ],
              [
                137.159611174032,
                34.9998214269646,
                24.5
              ],
              [
                137.159631547384,
                34.99986442843951,
                24.5
              ],
              [
                137.159621358576,
                34.9998677633011,
                24.5
              ],
              [
                137.159636583822,
                34.99990003693981,
                24.5
              ],
              [
                137.159586187573,
                34.9999161703888,
                24.5
              ],
              [
                137.159571510021,
                34.9998849785443,
                24.5
              ],
              [
                137.159527468076,
                34.9998991290982,
                24.5
              ],
              [
                137.159537873817,
                34.9999209453715,
                24.5
              ],
              [
                137.159458444888,
                34.99994636223749,
                24.5
              ]
            ]
          ]
        ]
      },
      "properties": {
        "predicted_probability": "0.0116990965634684"
      }
    },
    {
      "type": "Feature",
      "geometry": {
        "type": "MultiPolygon",
        "coordinates": [
          [
            [
              [
                137.159497796369,
                34.9996991804953,
                20.54
              ],
              [
                137.159527918028,
                34.99976399822609,
                20.54
              ],
              [
                137.15958664048,
                34.9997456116026,
                20.54
              ],
              [
                137.15955651879,
                34.9996807037387,
                20.54
              ],
              [
                137.159497796369,
                34.9996991804953,
                20.54
              ]
            ]
          ],
          [
            [
              [
                137.159497796369,
                34.9996991804953,
                20.54
              ],
              [
                137.15955651879,
                34.9996807037387,
                20.54
              ],
              [
                137.15955651879,
                34.9996807037387,
                23.54
              ],
              [
                137.159497796369,
                34.9996991804953,
                23.54
              ],
              [
                137.159497796369,
                34.9996991804953,
                20.54
              ]
            ]
          ],
          [
            [
              [
                137.15955651879,
                34.9996807037387,
                20.54
              ],
              [
                137.15958664048,
                34.9997456116026,
                20.54
              ],
              [
                137.15958664048,
                34.9997456116026,
                23.54
              ],
              [
                137.15955651879,
                34.9996807037387,
                23.54
              ],
              [
                137.15955651879,
                34.9996807037387,
                20.54
              ]
            ]
          ],
          [
            [
              [
                137.15958664048,
                34.9997456116026,
                20.54
              ],
              [
                137.159527918028,
                34.99976399822609,
                20.54
              ],
              [
                137.159527918028,
                34.99976399822609,
                23.54
              ],
              [
                137.15958664048,
                34.9997456116026,
                23.54
              ],
              [
                137.15958664048,
                34.9997456116026,
                20.54
              ]
            ]
          ],
          [
            [
              [
                137.159527918028,
                34.99976399822609,
                20.54
              ],
              [
                137.159497796369,
                34.9996991804953,
                20.54
              ],
              [
                137.159497796369,
                34.9996991804953,
                23.54
              ],
              [
                137.159527918028,
                34.99976399822609,
                23.54
              ],
              [
                137.159527918028,
                34.99976399822609,
                20.54
              ]
            ]
          ],
          [
            [
              [
                137.159497796369,
                34.9996991804953,
                23.54
              ],
              [
                137.15955651879,
                34.9996807037387,
                23.54
              ],
              [
                137.15958664048,
                34.9997456116026,
                23.54
              ],
              [
                137.159527918028,
                34.99976399822609,
                23.54
              ],
              [
                137.159497796369,
                34.9996991804953,
                23.54
              ]
            ]
          ]
        ]
      },
      "properties": {
        "predicted_probability": "0.0116990965634684"
      }
    },
    {
      "type": "Feature",
      "geometry": {
        "type": "MultiPolygon",
        "coordinates": [
          [
            [
              [
                137.159555306781,
                34.9997606643811,
                20.66
              ],
              [
                137.159574365123,
                34.9998073618309,
                20.66
              ],
              [
                137.159614572354,
                34.9997963661948,
                20.66
              ],
              [
                137.159595514,
                34.9997495786038,
                20.66
              ],
              [
                137.159555306781,
                34.9997606643811,
                20.66
              ]
            ]
          ],
          [
            [
              [
                137.159555306781,
                34.9997606643811,
                20.66
              ],
              [
                137.159595514,
                34.9997495786038,
                20.66
              ],
              [
                137.159595514,
                34.9997495786038,
                23.66
              ],
              [
                137.159555306781,
                34.9997606643811,
                23.66
              ],
              [
                137.159555306781,
                34.9997606643811,
                20.66
              ]
            ]
          ],
          [
            [
              [
                137.159595514,
                34.9997495786038,
                20.66
              ],
              [
                137.159614572354,
                34.9997963661948,
                20.66
              ],
              [
                137.159614572354,
                34.9997963661948,
                23.66
              ],
              [
                137.159595514,
                34.9997495786038,
                23.66
              ],
              [
                137.159595514,
                34.9997495786038,
                20.66
              ]
            ]
          ],
          [
            [
              [
                137.159614572354,
                34.9997963661948,
                20.66
              ],
              [
                137.159574365123,
                34.9998073618309,
                20.66
              ],
              [
                137.159574365123,
                34.9998073618309,
                23.66
              ],
              [
                137.159614572354,
                34.9997963661948,
                23.66
              ],
              [
                137.159614572354,
                34.9997963661948,
                20.66
              ]
            ]
          ],
          [
            [
              [
                137.159574365123,
                34.9998073618309,
                20.66
              ],
              [
                137.159555306781,
                34.9997606643811,
                20.66
              ],
              [
                137.159555306781,
                34.9997606643811,
                23.66
              ],
              [
                137.159574365123,
                34.9998073618309,
                23.66
              ],
              [
                137.159574365123,
                34.9998073618309,
                20.66
              ]
            ]
          ],
          [
            [
              [
                137.159555306781,
                34.9997606643811,
                23.66
              ],
              [
                137.159595514,
                34.9997495786038,
                23.66
              ],
              [
                137.159614572354,
                34.9997963661948,
                23.66
              ],
              [
                137.159574365123,
                34.9998073618309,
                23.66
              ],
              [
                137.159555306781,
                34.9997606643811,
                23.66
              ]
            ]
          ]
        ]
      },
      "properties": {
        "predicted_probability": "0.0116990965634684"
      }
    },
    {
      "type": "Feature",
      "geometry": {
        "type": "MultiPolygon",
        "coordinates": [
          [
            [
              [
                137.117786442934,
                35.00387085475779,
                26.64
              ],
              [
                137.117761932711,
                35.0038186496031,
                26.64
              ],
              [
                137.117728401201,
                35.0038293636176,
                26.64
              ],
              [
                137.117752911405,
                35.00388156877889,
                26.64
              ],
              [
                137.117786442934,
                35.00387085475779,
                26.64
              ]
            ]
          ],
          [
            [
              [
                137.117786442934,
                35.00387085475779,
                26.64
              ],
              [
                137.117752911405,
                35.00388156877889,
                26.64
              ],
              [
                137.117752911405,
                35.00388156877889,
                29.64
              ],
              [
                137.117786442934,
                35.00387085475779,
                29.64
              ],
              [
                137.117786442934,
                35.00387085475779,
                26.64
              ]
            ]
          ],
          [
            [
              [
                137.117752911405,
                35.00388156877889,
                26.64
              ],
              [
                137.117728401201,
                35.0038293636176,
                26.64
              ],
              [
                137.117728401201,
                35.0038293636176,
                29.64
              ],
              [
                137.117752911405,
                35.00388156877889,
                29.64
              ],
              [
                137.117752911405,
                35.00388156877889,
                26.64
              ]
            ]
          ],
          [
            [
              [
                137.117728401201,
                35.0038293636176,
                26.64
              ],
              [
                137.117761932711,
                35.0038186496031,
                26.64
              ],
              [
                137.117761932711,
                35.0038186496031,
                29.64
              ],
              [
                137.117728401201,
                35.0038293636176,
                29.64
              ],
              [
                137.117728401201,
                35.0038293636176,
                26.64
              ]
            ]
          ],
          [
            [
              [
                137.117761932711,
                35.0038186496031,
                26.64
              ],
              [
                137.117786442934,
                35.00387085475779,
                26.64
              ],
              [
                137.117786442934,
                35.00387085475779,
                29.64
              ],
              [
                137.117761932711,
                35.0038186496031,
                29.64
              ],
              [
                137.117761932711,
                35.0038186496031,
                26.64
              ]
            ]
          ],
          [
            [
              [
                137.117786442934,
                35.00387085475779,
                29.64
              ],
              [
                137.117752911405,
                35.00388156877889,
                29.64
              ],
              [
                137.117728401201,
                35.0038293636176,
                29.64
              ],
              [
                137.117761932711,
                35.0038186496031,
                29.64
              ],
              [
                137.117786442934,
                35.00387085475779,
                29.64
              ]
            ]
          ]
        ]
      },
      "properties": {
        "predicted_probability": "0.0116990965634684"
      }
    }
  ]
}